#dP2024  1  3  0  0  0.00000000      97 __u+U IGS20 FIT  IAC
## 2295 259200.00000000   900.00000000 60312 0.0000000000000
+  117   C06C08C09C10C11C12C13C14C16C19C20C21C22C23C24C25C26
+        C27C28C29C30C32C33C34C35C36C37C38C39C40C41C42C43C44
+        C45C46E02E03E04E05E07E08E09E10E11E12E13E14E15E18E19
+        E21E24E25E26E27E30E31E33E34E36G01G02G03G04G05G06G07
+        G08G09G10G11G12G13G14G15G16G17G18G19G20G21G22G23G24
+        G25G26G28G29G30G31G32J02J03J04R01R02R03R04R05R07R08
+        R09R11R12R13R14R15R16R17R18R19R20R21R22R24R25  0  0
++         7  7  7  7  7  6  7  7  7  6  6  5  6  5  5  5  6
++         5  6  6  6  5  6  5  6  6  5  6  6  6  6  6  6  6
++         6  5  4  4  4  4  4  4  4  4  4  4  4  4  4  4  4
++         4  4  4  4  4  4  4  4  4  4  3  3  3  3  3  3  3
++         3  3  3  3  3  3  3  3  3  3  3  3  3  3  3  3  3
++         3  3  3  3  3  3  3  9 11  9  7  6  6  6  6  6  6
++         7  7  7  8  6  6  6  6  6  8  8  7  7  6  8  0  0
%c M  cc GPS ccc cccc cccc cccc cccc ccccc ccccc ccccc ccccc
%c cc cc ccc ccc cccc cccc cccc cccc ccccc ccccc ccccc ccccc
%f  1.2500000  1.025000000  0.00000000000  0.000000000000000
%f  0.0000000  0.000000000  0.00000000000  0.000000000000000
%i    0    0    0    0      0      0      0      0         0
%i    0    0    0    0      0      0      0      0         0
/* INFORMATION & ANALYSIS CENTER (IAC)            FINAL DATA
/* S/V CLOCKS ARE ALIGNED TO GNSS TIME                      
/* G:C1WC2W R:C1PC2P E:C1XC5X C:C2IC6I J:C1CC2S             
/* PCV:IGS20_2290 OL/AL:FES2004  NONE     YN ORB:CoN CLK:CoN
*  2024 01 03 10 30  0.00000000
PC06  -8234.278907  39860.754570 -10377.547735     26.982150
PC08 -18727.015305  27888.597540 -25615.915201    138.216691
PC09  -1922.203720  41771.461290   1048.118875   -302.913487
PC10   2977.655345  29522.592478  30426.144354    140.557850
PC11  16177.839550   2606.730305 -22514.636374    339.140886
PC12  13955.616050  21262.420438 -11439.779990    807.170390
PC13 -12206.129987  28442.220907 -28606.110008    403.316806
PC14  27222.334105   2013.240044   5944.659156   -112.943557
PC16  -8128.025228  39688.413699 -10846.391256   -260.884111
PC19 -23523.241422   4539.995334 -14273.545161   -942.866852
PC20 -26869.766282  -7296.685103   1683.809260    -30.429940
PC21  14193.871258  15812.089292 -18086.588662   -965.185018
PC22  -6431.678881  14477.261551 -22975.565746   -161.910509
PC23  14200.806132 -22931.172993  -7146.492575   -794.853616
PC24  17469.851510   3887.745330  21381.746529    754.209957
PC25  21880.215773 -14465.804934   9477.913425    293.085554
PC26   3401.828663  18536.686129  20570.083235   -229.389757
PC27 -10114.990592 -25806.931417   3271.864007    251.417499
PC28   1459.108402 -25017.480791 -12270.668943    190.544359
PC29 -13872.923680   8551.503025  22651.009172    223.167732
PC30 -17452.409432 -12862.007216  17579.344778    -12.805795
PC32 -14173.874558 -15740.314666  18178.357771   -549.381476
PC33  23575.890779  -4651.014572  14200.499749   -942.176947
PC34  17605.184474  11276.786557 -18480.713094    338.999919
PC35   -582.049766  25040.301521  12255.258505    465.932440
PC36 -22297.263478  13417.583785 -10086.150847    -67.265452
PC37  -2514.054549 -18906.008470 -20360.407703   -931.403560
PC38 -24332.780942  29459.280094 -17919.394302    128.129226
PC39 -10358.642928  36623.537595 -17838.636047     -6.446313
PC40  -8802.332894  21828.099581  34991.058451    -50.494441
PC41   7303.949711 -14290.046986  22882.534454   -877.029096
PC42  26508.322971   8154.079904  -3160.733393   -470.951308
PC43  14392.004174  -7608.118397 -22673.257401     54.909216
PC44  11028.771455  25426.420928  -3114.579457    342.450242
PC45 -14019.579641  22941.470828   7519.768926    -60.197470
PC46 -18030.583361  -2816.291268 -21137.244099   -112.637560
PE02 -24987.712436  -4702.328522 -15184.078836     91.956240
PE03 -23698.691565 -15060.783746  -9362.679916    -84.494369
PE04  19019.929317  -2967.091050  22487.877705   -294.960923
PE05 -14543.528300 -24136.485717   9064.876970   4706.722652
PE07  -3584.109762  18911.386921 -22487.390388    -96.434280
PE08 -19285.263553   2280.960645 -22341.446845   -202.177736
PE09   3608.001333 -18733.008258  22627.810219   -286.089230
PE10  14880.929493 -22104.167398 -12883.534513   -591.278842
PE11   9918.816679 -27747.043361  -2888.486915   3279.909761
PE12  17243.902011 -13731.950174 -19758.600613   -846.574809
PE13 -10283.775687  27516.968833   3617.822194    -19.813501
PE14  -2707.433108  19847.859244  17915.320887     -0.086826
PE15 -17229.363682  13190.957915  20142.526805    -78.155869
PE18  14170.838148 -13107.608159 -22849.986058    168.225063
PE19  23184.219481  16903.082024   7267.258000   -886.788290
PE21   8091.576921  15127.850247  24114.466697   -572.028234
PE24  14709.935086 -17174.472465 -19104.908742   -521.427540
PE25  -7683.861509 -15266.481393 -24168.970913     -1.050185
PE26   3092.044254  25198.053551 -15208.809204    328.424935
PE27 -14271.303003  17252.505037  19366.042565   -240.084487
PE30 -28078.057901   8919.633616   2970.782622   -794.175997
PE31  27943.421625  -9183.571141  -3264.282302    -12.991762
PE33  13731.844534   9270.455870 -24519.182667      5.322010
PE34 -14004.143984  -8604.362009  24620.129274    -86.917691
PE36  -2571.145779 -25531.677783  14772.241727   -166.640701
PG01 -13149.046692  20283.507861  10261.124749    165.171940
PG02 -14717.335706  14588.730083  16986.856987   -506.353971
PG03 -22062.613333  11757.969648  -8942.465303    100.384736
PG04 -11465.248423   9888.490503 -21811.742327    256.418917
PG05  25827.754998  -5694.359901  -3121.844313   -156.557595
PG06   8377.106973  16228.094130 -19173.087108    457.400173
PG07  -4478.692711  25717.094781   3686.938666    -28.060224
PG08 -17797.235921   2156.072543  19641.313400   -160.221180
PG09    195.252161  18739.049460 -18885.560841     46.941162
PG10  -9808.360424 -12377.733023  21608.629480    -67.847057
PG11  14204.565971   5109.413327 -21828.333971   -525.862266
PG12  22691.294161 -10566.314460  -9057.247941   -464.081756
PG13  19663.167495   8929.736847  15403.090110    612.167694
PG14   5530.820826  14617.958435  21506.611215    288.536905
PG15  17676.114017  -4185.086774  18956.283549    113.434468
PG16 -25419.156718  -1862.043720  -8597.301479   -391.655491
PG17  10935.548847  22408.003523   9366.143465    720.726235
PG18   4376.663503 -25678.986123   4668.191284   -522.852985
PG19  16825.291225  20801.003017   -426.846870    421.382030
PG20  21644.364866   2012.374700 -15085.293794    393.405599
PG21 -15553.832292   9584.822618  19421.454719    139.589031
PG22  12829.724156  12157.039006  20173.241903     54.708382
PG23   4342.573191 -15867.586922  20828.140935    128.121107
PG24  14830.567345 -14063.107793  16330.905300   -406.577017
PG25  12613.148305 -16102.899087 -17126.679909    483.915233
PG26 -20115.962311  -6172.134226 -16557.850754    203.724534
PG28  -7788.122414 -18726.714055 -17174.233966    -87.823807
PG29   2223.308557 -17933.968973 -19475.742293   -609.156487
PG30   3214.221238  23032.266123  12707.167906   -449.933294
PG31 -12670.298835 -10051.890392 -21210.505518   -227.065966
PG32 -15130.560296 -21161.720949   6072.137053   -602.090044
PJ02 -31501.659245  24243.594988  19107.823750     -0.928969
PJ03 -27030.188264  28295.802623  20991.126295     -0.117150
PJ04 -27502.934132  20872.799687 -19038.415709     75.801191
PR01 -17417.183822   2527.748543 -18460.591053     73.659668
PR02   -908.979700  11237.099234 -22831.303006    -22.359669
PR03  16090.443508  14011.253952 -13884.391544     92.107906
PR04  23665.421784   9180.703853   2439.384252    217.982341
PR05  18571.731842   -612.759736  17470.542673    124.806210
PR07 -16762.259642 -14006.449119  13259.848866     72.773976
PR08 -23764.328265  -8965.957352  -2511.442900    -73.883806
PR09  11901.292734 -18073.255305 -13555.385195    162.339693
PR11 -16243.634167    713.332972 -19643.909187   -225.190956
PR12 -21132.719933  13841.849274  -3584.051442     35.195783
PR13 -13912.467785  17894.615380  11686.012141    -42.909383
PR14   3414.387107  11253.935339  22638.029186     25.890951
PR15  17176.271427  -1630.864767  18800.273465     83.422142
PR16  21092.816018 -13826.228446   3929.492273     22.156806
PR17   6632.352354  23021.755704  -8796.684712     49.087907
PR18  10505.362137  10036.913957 -20929.230543    120.196914
PR19   9737.236021  -6093.498003 -22768.145330   -260.669105
PR20   2671.710406 -23481.861724  -9638.470782   -106.194743
PR21  -6613.430031 -22803.939069   9297.468864    -65.999572
PR22 -10725.042903  -9286.132008  21233.982125    101.369951
PR24  -1678.661484  23797.584678   9071.817166    -38.429992
PR25  -5825.196409 -23192.613809   8863.773835     12.363137
EOF
